{"type": "FeatureCollection", "features": [ {"type": "Feature", "properties": {"norad_id": 30146, "name": "FENGYUN 1C DEB", "group": "fengyun-1c-debris", "lat": 37.625905801472655, "lon": 133.4623577743658, "alt_km": 972.1849681528993, "timestamp": "2025-12-04T23:34:05.996861+00:00", "meta": {"OBJECT_NAME": "FENGYUN 1C DEB", "OBJECT_ID": "1999-025TB", "EPOCH": "2025-12-04T05:09:11.643840", "MEAN_MOTION": 13.86577582, "ECCENTRICITY": 0.0178739, "INCLINATION": 98.0201, "RA_OF_ASC_NODE": 139.0428, "ARG_OF_PERICENTER": 146.4834, "MEAN_ANOMALY": 25.6751, "EPHEMERIS_TYPE": 0, "CLASSIFICATION_TYPE": "U", "NORAD_CAT_ID": 30146, "ELEMENT_SET_NO": 999, "REV_AT_EPOCH": 95299, "BSTAR": 0.0012331, "MEAN_MOTION_DOT": 1.591e-05, "MEAN_MOTION_DDOT": 0}, "tle": {"line1": "1 30146U 99025TB  25338.21471810  .00001591  00000+0  12331-2 0  9991", "line2": "2 30146  98.0201 139.0428 0178739 146.4834  25.6751 13.86577582952990"}}, "geometry": {"type": "Point", "coordinates": [133.4623577743658, 37.625905801472655]}}, {"type": "Feature", "properties": {"norad_id": 30148, "name": "FENGYUN 1C DEB", "group": "fengyun-1c-debris", "lat": 12.21303406149822, "lon": 126.01748321921092, "alt_km": 1024.4312212970954, "timestamp": "2025-12-04T23:34:05.996871+00:00", "meta": {"OBJECT_NAME": "FENGYUN 1C DEB", "OBJECT_ID": "1999-025TD", "EPOCH": "2025-12-02T23:40:52.710816", "MEAN_MOTION": 13.88451209, "ECCENTRICITY": 0.01347826, "INCLINATION": 99.5453, "RA_OF_ASC_NODE": 126.0634, "ARG_OF_PERICENTER": 222.5829, "MEAN_ANOMALY": 261.2361, "EPHEMERIS_TYPE": 0, "CLASSIFICATION_TYPE": "U", "NORAD_CAT_ID": 30148, "ELEMENT_SET_NO": 999, "REV_AT_EPOCH": 95381, "BSTAR": 0.0011371118, "MEAN_MOTION_DOT": 1.42e-05, "MEAN_MOTION_DDOT": 0}, "tle": {"line1": "1 30148U 99025TD  25336.98672119  .00001420  00000+0  11371-2 0  9994", "line2": "2 30148  99.5453 126.0634 0134782 222.5829 261.2361 13.88451209953818"}}, "geometry": {"type": "Point", "coordinates": [126.01748321921092, 12.21303406149822]}}, {"type": "Feature", "properties": {"norad_id": 30150, "name": "FENGYUN 1C DEB", "group": "fengyun-1c-debris", "lat": -20.927503225718084, "lon": -68.20330815778466, "alt_km": 1043.7319106587056, "timestamp": "2025-12-04T23:34:05.996881+00:00", "meta": {"OBJECT_NAME": "FENGYUN 1C DEB", "OBJECT_ID": "1999-025TF", "EPOCH": "2025-12-04T09:02:38.632128", "MEAN_MOTION": 13.86579234, "ECCENTRICITY": 0.0146709, "INCLINATION": 98.9941, "RA_OF_ASC_NODE": 114.6871, "ARG_OF_PERICENTER": 358.8517, "MEAN_ANOMALY": 63.7026, "EPHEMERIS_TYPE": 0, "CLASSIFICATION_TYPE": "U", "NORAD_CAT_ID": 30150, "ELEMENT_SET_NO": 999, "REV_AT_EPOCH": 95342, "BSTAR": 0.00077744, "MEAN_MOTION_DOT": 9.41e-06, "MEAN_MOTION_DDOT": 0}, "tle": {"line1": "1 30150U 99025TF  25338.37683602  .00000941  00000+0  77744-3 0  9995", "line2": "2 30150  98.9941 114.6871 0146709 358.8517  63.7026 13.86579234953428"}}, "geometry": {"type": "Point", "coordinates": [-68.20330815778466, -20.927503225718084]}}, {"type": "Feature", "properties": {"norad_id": 30151, "name": "FENGYUN 1C DEB", "group": "fengyun-1c-debris", "lat": 62.98245995862355, "lon": -31.017600046934078, "alt_km": 1008.805610265621, "timestamp": "2025-12-04T23:34:05.996892+00:00", "meta": {"OBJECT_NAME": "FENGYUN 1C DEB", "OBJECT_ID": "1999-025TG", "EPOCH": "2025-12-03T00:43:17.165856", "MEAN_MOTION": 13.84448896, "ECCENTRICITY": 0.0163271, "INCLINATION": 99.0635, "RA_OF_ASC_NODE": 345.34, "ARG_OF_PERICENTER": 304.9779, "MEAN_ANOMALY": 114.6215, "EPHEMERIS_TYPE": 0, "CLASSIFICATION_TYPE": "U", "NORAD_CAT_ID": 30151, "ELEMENT_SET_NO": 999, "REV_AT_EPOCH": 95111, "BSTAR": 0.00089012415, "MEAN_MOTION_DOT": 1.062e-05, "MEAN_MOTION_DDOT": 0}, "tle": {"line1": "1 30151U 99025TG  25337.03005979  .00001062  00000+0  89012-3 0  9999", "line2": "2 30151  99.0635 345.3400 0163271 304.9779 114.6215 13.84448896951114"}}, "geometry": {"type": "Point", "coordinates": [-31.017600046934078, 62.98245995862355]}}, {"type": "Feature", "properties": {"norad_id": 30152, "name": "FENGYUN 1C DEB", "group": "fengyun-1c-debris", "lat": -27.194366442228592, "lon": 12.115306390495807, "alt_km": 931.151935413769, "timestamp": "2025-12-04T23:34:05.996902+00:00", "meta": {"OBJECT_NAME": "FENGYUN 1C DEB", "OBJECT_ID": "1999-025TH", "EPOCH": "2025-12-04T13:59:53.536992", "MEAN_MOTION": 13.96604774, "ECCENTRICITY": 0.0161066, "INCLINATION": 99.0803, "RA_OF_ASC_NODE": 196.4349, "ARG_OF_PERICENTER": 107.8644, "MEAN_ANOMALY": 254.0158, "EPHEMERIS_TYPE": 0, "CLASSIFICATION_TYPE": "U", "NORAD_CAT_ID": 30152, "ELEMENT_SET_NO": 999, "REV_AT_EPOCH": 95264, "BSTAR": 0.0043094, "MEAN_MOTION_DOT": 6.62e-05, "MEAN_MOTION_DDOT": 0}, "tle": {"line1": "1 30152U 99025TH  25338.58325853  .00006620  00000+0  43094-2 0  9991", "line2": "2 30152  99.0803 196.4349 0161066 107.8644 254.0158 13.96604774952646"}}, "geometry": {"type": "Point", "coordinates": [12.115306390495807, -27.194366442228592]}}, {"type": "Feature", "properties": {"norad_id": 30153, "name": "FENGYUN 1C DEB", "group": "fengyun-1c-debris", "lat": -21.816236056457754, "lon": -27.19168082138278, "alt_km": 871.9883098414148, "timestamp": "2025-12-04T23:34:05.996912+00:00", "meta": {"OBJECT_NAME": "FENGYUN 1C DEB", "OBJECT_ID": "1999-025TJ", "EPOCH": "2025-12-03T21:50:19.984992", "MEAN_MOTION": 13.78731597, "ECCENTRICITY": 0.02008215, "INCLINATION": 100.4661, "RA_OF_ASC_NODE": 327.3826, "ARG_OF_PERICENTER": 27.9772, "MEAN_ANOMALY": 33.217, "EPHEMERIS_TYPE": 0, "CLASSIFICATION_TYPE": "U", "NORAD_CAT_ID": 30153, "ELEMENT_SET_NO": 999, "REV_AT_EPOCH": 94653, "BSTAR": 0.001678671, "MEAN_MOTION_DOT": 1.931e-05, "MEAN_MOTION_DDOT": 0}, "tle": {"line1": "1 30153U 99025TJ  25337.90995353  .00001931  00000+0  16787-2 0  9994", "line2": "2 30153 100.4661 327.3826 0200821  27.9772  33.2170 13.78731597946534"}}, "geometry": {"type": "Point", "coordinates": [-27.19168082138278, -21.816236056457754]}}, {"type": "Feature", "properties": {"norad_id": 30154, "name": "FENGYUN 1C DEB", "group": "fengyun-1c-debris", "lat": 29.26182761872095, "lon": 16.741807670301643, "alt_km": 1072.8448884142126, "timestamp": "2025-12-04T23:34:05.996922+00:00", "meta": {"OBJECT_NAME": "FENGYUN 1C DEB", "OBJECT_ID": "1999-025TK", "EPOCH": "2025-12-02T02:15:41.257728", "MEAN_MOTION": 13.85922523, "ECCENTRICITY": 0.01824653, "INCLINATION": 98.4506, "RA_OF_ASC_NODE": 18.9121, "ARG_OF_PERICENTER": 227.7645, "MEAN_ANOMALY": 161.336, "EPHEMERIS_TYPE": 0, "CLASSIFICATION_TYPE": "U", "NORAD_CAT_ID": 30154, "ELEMENT_SET_NO": 999, "REV_AT_EPOCH": 94837, "BSTAR": 0.0017171262, "MEAN_MOTION_DOT": 2.209e-05, "MEAN_MOTION_DDOT": 0}, "tle": {"line1": "1 30154U 99025TK  25336.09422752  .00002209  00000+0  17171-2 0  9999", "line2": "2 30154  98.4506  18.9121 0182465 227.7645 161.3360 13.85922523948379"}}, "geometry": {"type": "Point", "coordinates": [16.741807670301643, 29.26182761872095]}}, {"type": "Feature", "properties": {"norad_id": 30155, "name": "FENGYUN 1C DEB", "group": "fengyun-1c-debris", "lat": -44.688049314012396, "lon": -137.44574915450724, "alt_km": 1124.3687394428316, "timestamp": "2025-12-04T23:34:05.996932+00:00", "meta": {"OBJECT_NAME": "FENGYUN 1C DEB", "OBJECT_ID": "1999-025TL", "EPOCH": "2025-12-04T10:13:51.138912", "MEAN_MOTION": 13.7375555, "ECCENTRICITY": 0.0241876, "INCLINATION": 99.7525, "RA_OF_ASC_NODE": 51.782, "ARG_OF_PERICENTER": 5.4506, "MEAN_ANOMALY": 354.919, "EPHEMERIS_TYPE": 0, "CLASSIFICATION_TYPE": "U", "NORAD_CAT_ID": 30155, "ELEMENT_SET_NO": 999, "REV_AT_EPOCH": 93750, "BSTAR": 0.003283, "MEAN_MOTION_DOT": 3.745e-05, "MEAN_MOTION_DDOT": 0}, "tle": {"line1": "1 30155U 99025TL  25338.42628633  .00003745  00000+0  32830-2 0  9990", "line2": "2 30155  99.7525  51.7820 0241876   5.4506 354.9190 13.73755550937500"}}, "geometry": {"type": "Point", "coordinates": [-137.44574915450724, -44.688049314012396]}}, {"type": "Feature", "properties": {"norad_id": 30156, "name": "FENGYUN 1C DEB", "group": "fengyun-1c-debris", "lat": -71.64267631974491, "lon": -25.351548485110424, "alt_km": 821.6348334760569, "timestamp": "2025-12-04T23:34:05.996942+00:00", "meta": {"OBJECT_NAME": "FENGYUN 1C DEB", "OBJECT_ID": "1999-025TM", "EPOCH": "2025-12-03T08:41:31.729056", "MEAN_MOTION": 13.80756146, "ECCENTRICITY": 0.020016, "INCLINATION": 98.9176, "RA_OF_ASC_NODE": 304.8793, "ARG_OF_PERICENTER": 288.1138, "MEAN_ANOMALY": 230.476, "EPHEMERIS_TYPE": 0, "CLASSIFICATION_TYPE": "U", "NORAD_CAT_ID": 30156, "ELEMENT_SET_NO": 999, "REV_AT_EPOCH": 94561, "BSTAR": 0.0024003, "MEAN_MOTION_DOT": 2.895e-05, "MEAN_MOTION_DDOT": 0}, "tle": {"line1": "1 30156U 99025TM  25337.36217279  .00002895  00000+0  24003-2 0  9991", "line2": "2 30156  98.9176 304.8793 0200160 288.1138 230.4760 13.80756146945619"}}, "geometry": {"type": "Point", "coordinates": [-25.351548485110424, -71.64267631974491]}}, {"type": "Feature", "properties": {"norad_id": 30157, "name": "FENGYUN 1C DEB", "group": "fengyun-1c-debris", "lat": -32.072770414606225, "lon": -109.70134056846537, "alt_km": 722.0976333382278, "timestamp": "2025-12-04T23:34:05.996953+00:00", "meta": {"OBJECT_NAME": "FENGYUN 1C DEB", "OBJECT_ID": "1999-025TN", "EPOCH": "2025-12-04T06:13:49.285344", "MEAN_MOTION": 14.44893119, "ECCENTRICITY": 0.0036911, "INCLINATION": 98.7174, "RA_OF_ASC_NODE": 75.075, "ARG_OF_PERICENTER": 217.8089, "MEAN_ANOMALY": 199.005, "EPHEMERIS_TYPE": 0, "CLASSIFICATION_TYPE": "U", "NORAD_CAT_ID": 30157, "ELEMENT_SET_NO": 999, "REV_AT_EPOCH": 97950, "BSTAR": 0.0054888, "MEAN_MOTION_DOT": 0.00019275, "MEAN_MOTION_DDOT": 0}, "tle": {"line1": "1 30157U 99025TN  25338.25959821  .00019275  00000+0  54888-2 0  9991", "line2": "2 30157  98.7174  75.0750 0036911 217.8089 199.0050 14.44893119979501"}}, "geometry": {"type": "Point", "coordinates": [-109.70134056846537, -32.072770414606225]}}]}